STARLINK-36590          
1 67577U 26016S   26040.83335647  .00009466  00000+0  50105-4 0  9997
2 67577  97.2766  99.9008 0001308  81.2361 346.9395 15.80815905  3575
STARLINK-36613          
1 67578U 26016T   26040.83335647 -.00027124  00000+0 -14118-3 0  9994
2 67578  97.2853  99.9043 0001374  89.2630 345.4462 15.80834480  3570
STARLINK-36571          
1 67579U 26016U   26040.58334491  .00137724  00000+0  71020-3 0  9994
2 67579  97.2850  99.6438 0001157  96.9367   4.3971 15.80762367  3530
STARLINK-36612          
1 67580U 26016V   26040.58334491  .00170909  00000+0  87864-3 0  9991
2 67580  97.2849  99.6466 0000948 108.3691 359.2472 15.80740996  3538
STARLINK-36632          
1 67581U 26016W   26040.58334491  .00169245  00000+0  87022-3 0  9999
2 67581  97.2848  99.6539 0001343  97.6967  27.9226 15.80741724  3531
STARLINK-36609          
1 67582U 26016X   26040.58334491  .00040758  00000+0  27296-3 0  9994
2 67582  97.2824  99.6482 0000958  93.0199  17.6187 15.75179167  3533
STARLINK-36577          
1 67583U 26016Y   26040.58334491  .00169599  00000+0  87268-3 0  9995
2 67583  97.2850  99.6489 0001054  88.2584  27.7634 15.80724895  3531
STARLINK-36419          
1 67584U 26016Z   26040.58334491  .00154108  00000+0  79376-3 0  9997
2 67584  97.2850  99.6597 0001639 123.0166  15.7143 15.80743714  3538
STARLINK-36560          
1 67585U 26016AA  26040.58334491  .00214587  00000+0  10982-2 0  9993
2 67585  97.2852  99.6632 0001538  79.8687  68.6510 15.80725757  3470
CZ-2C DEB               
1 67586U 26009C   26040.71735872  .00058955  00000+0  29146-2 0  9996
2 67586  97.2263 114.1438 0110767 133.7994 227.2465 15.12310880  3856
CZ-2C DEB               
1 67587U 26009D   26040.75379013  .00044554  00000+0  21358-2 0  9999
2 67587  97.6724 115.6066 0107152 139.2617 221.6690 15.13748774  3860
NAVSTAR 85 (USA 581)    
1 67588U 26017A   26039.56481726 -.00000042  00000+0  00000+0 0  9994
2 67588  55.0021  93.9172 0000856  72.5628 287.5081  2.00561463429035
