CCSDS_OMM_VERS = 2.0
CREATION_DATE  = 
ORIGINATOR     = 

OBJECT_NAME    = STARLINK-36590
OBJECT_ID      = 2026-016S
CENTER_NAME    = EARTH
REF_FRAME      = TEME
TIME_SYSTEM    = UTC
MEAN_ELEMENT_THEORY = SGP/SGP4

EPOCH          = 2026-02-09T20:00:01.999008
MEAN_MOTION    = 15.80815905
ECCENTRICITY   = .0001308
INCLINATION    = 97.2766
RA_OF_ASC_NODE = 99.9008
ARG_OF_PERICENTER = 81.2361
MEAN_ANOMALY   = 346.9395

EPHEMERIS_TYPE = 0
CLASSIFICATION_TYPE = U
NORAD_CAT_ID   = 67577
ELEMENT_SET_NO = 999
REV_AT_EPOCH   = 357
BSTAR          = .50105E-4
MEAN_MOTION_DOT = .9466E-4
MEAN_MOTION_DDOT = 0

CCSDS_OMM_VERS = 2.0
CREATION_DATE  = 
ORIGINATOR     = 

OBJECT_NAME    = STARLINK-36613
OBJECT_ID      = 2026-016T
CENTER_NAME    = EARTH
REF_FRAME      = TEME
TIME_SYSTEM    = UTC
MEAN_ELEMENT_THEORY = SGP/SGP4

EPOCH          = 2026-02-09T20:00:01.999008
MEAN_MOTION    = 15.80834480
ECCENTRICITY   = .0001374
INCLINATION    = 97.2853
RA_OF_ASC_NODE = 99.9043
ARG_OF_PERICENTER = 89.2630
MEAN_ANOMALY   = 345.4462

EPHEMERIS_TYPE = 0
CLASSIFICATION_TYPE = U
NORAD_CAT_ID   = 67578
ELEMENT_SET_NO = 999
REV_AT_EPOCH   = 357
BSTAR          = -.14118E-3
MEAN_MOTION_DOT = -.27124E-3
MEAN_MOTION_DDOT = 0

CCSDS_OMM_VERS = 2.0
CREATION_DATE  = 
ORIGINATOR     = 

OBJECT_NAME    = STARLINK-36571
OBJECT_ID      = 2026-016U
CENTER_NAME    = EARTH
REF_FRAME      = TEME
TIME_SYSTEM    = UTC
MEAN_ELEMENT_THEORY = SGP/SGP4

EPOCH          = 2026-02-09T14:00:01.000224
MEAN_MOTION    = 15.80762367
ECCENTRICITY   = .00011575
INCLINATION    = 97.2850
RA_OF_ASC_NODE = 99.6438
ARG_OF_PERICENTER = 96.9367
MEAN_ANOMALY   = 4.3971

EPHEMERIS_TYPE = 0
CLASSIFICATION_TYPE = U
NORAD_CAT_ID   = 67579
ELEMENT_SET_NO = 999
REV_AT_EPOCH   = 353
BSTAR          = .71019999E-3
MEAN_MOTION_DOT = .137724E-2
MEAN_MOTION_DDOT = 0

CCSDS_OMM_VERS = 2.0
CREATION_DATE  = 
ORIGINATOR     = 

OBJECT_NAME    = STARLINK-36612
OBJECT_ID      = 2026-016V
CENTER_NAME    = EARTH
REF_FRAME      = TEME
TIME_SYSTEM    = UTC
MEAN_ELEMENT_THEORY = SGP/SGP4

EPOCH          = 2026-02-09T14:00:01.000224
MEAN_MOTION    = 15.80740996
ECCENTRICITY   = .00009487
INCLINATION    = 97.2849
RA_OF_ASC_NODE = 99.6466
ARG_OF_PERICENTER = 108.3691
MEAN_ANOMALY   = 359.2472

EPHEMERIS_TYPE = 0
CLASSIFICATION_TYPE = U
NORAD_CAT_ID   = 67580
ELEMENT_SET_NO = 999
REV_AT_EPOCH   = 353
BSTAR          = .87863886E-3
MEAN_MOTION_DOT = .170909E-2
MEAN_MOTION_DDOT = 0

CCSDS_OMM_VERS = 2.0
CREATION_DATE  = 
ORIGINATOR     = 

OBJECT_NAME    = STARLINK-36632
OBJECT_ID      = 2026-016W
CENTER_NAME    = EARTH
REF_FRAME      = TEME
TIME_SYSTEM    = UTC
MEAN_ELEMENT_THEORY = SGP/SGP4

EPOCH          = 2026-02-09T14:00:01.000224
MEAN_MOTION    = 15.80741724
ECCENTRICITY   = .00013438
INCLINATION    = 97.2848
RA_OF_ASC_NODE = 99.6539
ARG_OF_PERICENTER = 97.6967
MEAN_ANOMALY   = 27.9226

EPHEMERIS_TYPE = 0
CLASSIFICATION_TYPE = U
NORAD_CAT_ID   = 67581
ELEMENT_SET_NO = 999
REV_AT_EPOCH   = 353
BSTAR          = .87022308E-3
MEAN_MOTION_DOT = .169245E-2
MEAN_MOTION_DDOT = 0

CCSDS_OMM_VERS = 2.0
CREATION_DATE  = 
ORIGINATOR     = 

OBJECT_NAME    = STARLINK-36609
OBJECT_ID      = 2026-016X
CENTER_NAME    = EARTH
REF_FRAME      = TEME
TIME_SYSTEM    = UTC
MEAN_ELEMENT_THEORY = SGP/SGP4

EPOCH          = 2026-02-09T14:00:01.000224
MEAN_MOTION    = 15.75179167
ECCENTRICITY   = .00009581
INCLINATION    = 97.2824
RA_OF_ASC_NODE = 99.6482
ARG_OF_PERICENTER = 93.0199
MEAN_ANOMALY   = 17.6187

EPHEMERIS_TYPE = 0
CLASSIFICATION_TYPE = U
NORAD_CAT_ID   = 67582
ELEMENT_SET_NO = 999
REV_AT_EPOCH   = 353
BSTAR          = .27295679E-3
MEAN_MOTION_DOT = .40758E-3
MEAN_MOTION_DDOT = 0

CCSDS_OMM_VERS = 2.0
CREATION_DATE  = 
ORIGINATOR     = 

OBJECT_NAME    = STARLINK-36577
OBJECT_ID      = 2026-016Y
CENTER_NAME    = EARTH
REF_FRAME      = TEME
TIME_SYSTEM    = UTC
MEAN_ELEMENT_THEORY = SGP/SGP4

EPOCH          = 2026-02-09T14:00:01.000224
MEAN_MOTION    = 15.80724895
ECCENTRICITY   = .00010544
INCLINATION    = 97.2850
RA_OF_ASC_NODE = 99.6489
ARG_OF_PERICENTER = 88.2584
MEAN_ANOMALY   = 27.7634

EPHEMERIS_TYPE = 0
CLASSIFICATION_TYPE = U
NORAD_CAT_ID   = 67583
ELEMENT_SET_NO = 999
REV_AT_EPOCH   = 353
BSTAR          = .87267948E-3
MEAN_MOTION_DOT = .169599E-2
MEAN_MOTION_DDOT = 0

CCSDS_OMM_VERS = 2.0
CREATION_DATE  = 
ORIGINATOR     = 

OBJECT_NAME    = STARLINK-36419
OBJECT_ID      = 2026-016Z
CENTER_NAME    = EARTH
REF_FRAME      = TEME
TIME_SYSTEM    = UTC
MEAN_ELEMENT_THEORY = SGP/SGP4

EPOCH          = 2026-02-09T14:00:01.000224
MEAN_MOTION    = 15.80743714
ECCENTRICITY   = .00016393
INCLINATION    = 97.2850
RA_OF_ASC_NODE = 99.6597
ARG_OF_PERICENTER = 123.0166
MEAN_ANOMALY   = 15.7143

EPHEMERIS_TYPE = 0
CLASSIFICATION_TYPE = U
NORAD_CAT_ID   = 67584
ELEMENT_SET_NO = 999
REV_AT_EPOCH   = 353
BSTAR          = .79375618E-3
MEAN_MOTION_DOT = .154108E-2
MEAN_MOTION_DDOT = 0

CCSDS_OMM_VERS = 2.0
CREATION_DATE  = 
ORIGINATOR     = 

OBJECT_NAME    = STARLINK-36560
OBJECT_ID      = 2026-016AA
CENTER_NAME    = EARTH
REF_FRAME      = TEME
TIME_SYSTEM    = UTC
MEAN_ELEMENT_THEORY = SGP/SGP4

EPOCH          = 2026-02-09T14:00:01.000224
MEAN_MOTION    = 15.80725757
ECCENTRICITY   = .00015381
INCLINATION    = 97.2852
RA_OF_ASC_NODE = 99.6632
ARG_OF_PERICENTER = 79.8687
MEAN_ANOMALY   = 68.6510

EPHEMERIS_TYPE = 0
CLASSIFICATION_TYPE = U
NORAD_CAT_ID   = 67585
ELEMENT_SET_NO = 999
REV_AT_EPOCH   = 347
BSTAR          = .10981956E-2
MEAN_MOTION_DOT = .214587E-2
MEAN_MOTION_DDOT = 0

CCSDS_OMM_VERS = 2.0
CREATION_DATE  = 
ORIGINATOR     = 

OBJECT_NAME    = CZ-2C DEB
OBJECT_ID      = 2026-009C
CENTER_NAME    = EARTH
REF_FRAME      = TEME
TIME_SYSTEM    = UTC
MEAN_ELEMENT_THEORY = SGP/SGP4

EPOCH          = 2026-02-09T17:12:59.793408
MEAN_MOTION    = 15.12310880
ECCENTRICITY   = .0110767
INCLINATION    = 97.2263
RA_OF_ASC_NODE = 114.1438
ARG_OF_PERICENTER = 133.7994
MEAN_ANOMALY   = 227.2465

EPHEMERIS_TYPE = 0
CLASSIFICATION_TYPE = U
NORAD_CAT_ID   = 67586
ELEMENT_SET_NO = 999
REV_AT_EPOCH   = 385
BSTAR          = .29146E-2
MEAN_MOTION_DOT = .58955E-3
MEAN_MOTION_DDOT = 0

CCSDS_OMM_VERS = 2.0
CREATION_DATE  = 
ORIGINATOR     = 

OBJECT_NAME    = CZ-2C DEB
OBJECT_ID      = 2026-009D
CENTER_NAME    = EARTH
REF_FRAME      = TEME
TIME_SYSTEM    = UTC
MEAN_ELEMENT_THEORY = SGP/SGP4

EPOCH          = 2026-02-09T18:05:27.467232
MEAN_MOTION    = 15.13748774
ECCENTRICITY   = .0107152
INCLINATION    = 97.6724
RA_OF_ASC_NODE = 115.6066
ARG_OF_PERICENTER = 139.2617
MEAN_ANOMALY   = 221.6690

EPHEMERIS_TYPE = 0
CLASSIFICATION_TYPE = U
NORAD_CAT_ID   = 67587
ELEMENT_SET_NO = 999
REV_AT_EPOCH   = 386
BSTAR          = .21358E-2
MEAN_MOTION_DOT = .44554E-3
MEAN_MOTION_DDOT = 0

CCSDS_OMM_VERS = 2.0
CREATION_DATE  = 
ORIGINATOR     = 

OBJECT_NAME    = NAVSTAR 85 (USA 581)
OBJECT_ID      = 2026-017A
CENTER_NAME    = EARTH
REF_FRAME      = TEME
TIME_SYSTEM    = UTC
MEAN_ELEMENT_THEORY = SGP/SGP4

EPOCH          = 2026-02-08T13:33:20.211264
MEAN_MOTION    = 2.00561463
ECCENTRICITY   = .0000856
INCLINATION    = 55.0021
RA_OF_ASC_NODE = 93.9172
ARG_OF_PERICENTER = 72.5628
MEAN_ANOMALY   = 287.5081

EPHEMERIS_TYPE = 0
CLASSIFICATION_TYPE = U
NORAD_CAT_ID   = 67588
ELEMENT_SET_NO = 999
REV_AT_EPOCH   = 42903
BSTAR          = 0
MEAN_MOTION_DOT = -.42E-6
MEAN_MOTION_DDOT = 0

